GLOBALSTAR M075         
1 37192U 10054E   24221.87225088 -.00000095  00000+0  46444-4 0  9993
2 37192  51.9952  52.4674 0000752  77.8167  29.5887 12.62262472636562
GLOBALSTAR M073         
1 37193U 10054F   24221.63491517 -.00000077  00000+0  14710-3 0  9990
2 37193  52.0081 326.7734 0000721  99.2894   8.3169 12.62267605638364
GLOBALSTAR M083         
1 37739U 11033A   24221.65500719 -.00000082  00000+0  12061-3 0  9994
2 37739  51.9851 275.8702 0000252 151.0574 349.3574 12.62263389607744
GLOBALSTAR M088         
1 37740U 11033B   24221.92221771 -.00000103  00000+0  27219-5 0  9991
2 37740  51.9715 180.8065 0000242 359.1673  36.5030 12.62265813603250
GLOBALSTAR M085         
1 37742U 11033D   24221.85304073 -.00000072  00000+0  17584-3 0  9999
2 37742  51.9865  95.3302 0000513  51.2716  29.6123 12.62264269604252
GLOBALSTAR M081         
1 37743U 11033E   24221.96344503 -.00000062  00000+0  23202-3 0  9997
2 37743  51.9958  97.5889 0000702  35.4189  66.9347 12.62267700604411
GLOBALSTAR M089         
1 37744U 11033F   24221.93354431 -.00000092  00000+0  66488-4 0  9993
2 37744  51.9936  51.9681 0001136  72.0500  72.8436 12.62266809605255
